[{"OBJECT_NAME":"STARLINK-33791","OBJECT_ID":"2025-076AB","EPOCH":"2026-03-23T12:32:24.489888","MEAN_MOTION":15.27586251,"ECCENTRICITY":0.0001837,"INCLINATION":43.0009,"RA_OF_ASC_NODE":243.7689,"ARG_OF_PERICENTER":258.9726,"MEAN_ANOMALY":101.0919,"EPHEMERIS_TYPE":0,"CLASSIFICATION_TYPE":"U","NORAD_CAT_ID":63594,"ELEMENT_SET_NO":999,"REV_AT_EPOCH":5394,"BSTAR":0.00081464,"MEAN_MOTION_DOT":0.00022227,"MEAN_MOTION_DDOT":0},{"OBJECT_NAME":"STARLINK-33831","OBJECT_ID":"2025-076AC","EPOCH":"2026-03-23T04:08:18.709728","MEAN_MOTION":15.27573202,"ECCENTRICITY":0.0001763,"INCLINATION":43.0031,"RA_OF_ASC_NODE":245.3815,"ARG_OF_PERICENTER":283.3579,"MEAN_ANOMALY":76.7076,"EPHEMERIS_TYPE":0,"CLASSIFICATION_TYPE":"U","NORAD_CAT_ID":63595,"ELEMENT_SET_NO":999,"REV_AT_EPOCH":5389,"BSTAR":0.001006293,"MEAN_MOTION_DOT":0.00027527,"MEAN_MOTION_DDOT":0},{"OBJECT_NAME":"STARLINK-33879","OBJECT_ID":"2025-083A","EPOCH":"2026-03-23T07:05:12.411456","MEAN_MOTION":15.27557158,"ECCENTRICITY":0.0001528,"INCLINATION":43.0025,"RA_OF_ASC_NODE":288.7224,"ARG_OF_PERICENTER":288.7089,"MEAN_ANOMALY":71.3597,"EPHEMERIS_TYPE":0,"CLASSIFICATION_TYPE":"U","NORAD_CAT_ID":63634,"ELEMENT_SET_NO":999,"REV_AT_EPOCH":5214,"BSTAR":0.0010645,"MEAN_MOTION_DOT":0.00029126,"MEAN_MOTION_DDOT":0},{"OBJECT_NAME":"STARLINK-33854","OBJECT_ID":"2025-083B","EPOCH":"2026-03-23T06:04:08.620320","MEAN_MOTION":15.27563997,"ECCENTRICITY":0.0001737,"INCLINATION":43.0018,"RA_OF_ASC_NODE":288.4071,"ARG_OF_PERICENTER":287.7573,"MEAN_ANOMALY":72.3089,"EPHEMERIS_TYPE":0,"CLASSIFICATION_TYPE":"U","NORAD_CAT_ID":63635,"ELEMENT_SET_NO":999,"REV_AT_EPOCH":5214,"BSTAR":0.001235,"MEAN_MOTION_DOT":0.00033861,"MEAN_MOTION_DDOT":0},{"OBJECT_NAME":"STARLINK-33864","OBJECT_ID":"2025-083C","EPOCH":"2026-03-23T07:10:45.797952","MEAN_MOTION":15.27557594,"ECCENTRICITY":8.78e-5,"INCLINATION":43.0035,"RA_OF_ASC_NODE":288.7512,"ARG_OF_PERICENTER":286.6891,"MEAN_ANOMALY":73.3864,"EPHEMERIS_TYPE":0,"CLASSIFICATION_TYPE":"U","NORAD_CAT_ID":63636,"ELEMENT_SET_NO":999,"REV_AT_EPOCH":5217,"BSTAR":0.00091665,"MEAN_MOTION_DOT":0.0002503,"MEAN_MOTION_DDOT":0},{"OBJECT_NAME":"STARLINK-33832","OBJECT_ID":"2025-083D","EPOCH":"2026-03-22T22:02:14.861184","MEAN_MOTION":15.2753716,"ECCENTRICITY":0.00016139,"INCLINATION":43.0014,"RA_OF_ASC_NODE":290.1933,"ARG_OF_PERICENTER":284.2035,"MEAN_ANOMALY":75.8638,"EPHEMERIS_TYPE":0,"CLASSIFICATION_TYPE":"U","NORAD_CAT_ID":63637,"ELEMENT_SET_NO":999,"REV_AT_EPOCH":5209,"BSTAR":0.0010603667,"MEAN_MOTION_DOT":0.00028994,"MEAN_MOTION_DDOT":0},{"OBJECT_NAME":"STARLINK-33856","OBJECT_ID":"2025-083E","EPOCH":"2026-03-23T06:07:50.511936","MEAN_MOTION":15.27557626,"ECCENTRICITY":0.0001583,"INCLINATION":43.0014,"RA_OF_ASC_NODE":288.4169,"ARG_OF_PERICENTER":290.3174,"MEAN_ANOMALY":69.7507,"EPHEMERIS_TYPE":0,"CLASSIFICATION_TYPE":"U","NORAD_CAT_ID":63638,"ELEMENT_SET_NO":999,"REV_AT_EPOCH":5214,"BSTAR":0.00097844,"MEAN_MOTION_DOT":0.00026742,"MEAN_MOTION_DDOT":0},{"OBJECT_NAME":"STARLINK-33876","OBJECT_ID":"2025-083F","EPOCH":"2026-03-23T06:30:02.233152","MEAN_MOTION":15.27562938,"ECCENTRICITY":0.000185,"INCLINATION":42.9988,"RA_OF_ASC_NODE":288.5273,"ARG_OF_PERICENTER":258.5541,"MEAN_ANOMALY":101.5102,"EPHEMERIS_TYPE":0,"CLASSIFICATION_TYPE":"U","NORAD_CAT_ID":63639,"ELEMENT_SET_NO":999,"REV_AT_EPOCH":5214,"BSTAR":0.001015,"MEAN_MOTION_DOT":0.00027759,"MEAN_MOTION_DDOT":0},{"OBJECT_NAME":"STARLINK-33859","OBJECT_ID":"2025-083G","EPOCH":"2026-03-23T13:25:32.007936","MEAN_MOTION":15.27571271,"ECCENTRICITY":0.0001634,"INCLINATION":43.0004,"RA_OF_ASC_NODE":287.2662,"ARG_OF_PERICENTER":233.3932,"MEAN_ANOMALY":126.6769,"EPHEMERIS_TYPE":0,"CLASSIFICATION_TYPE":"U","NORAD_CAT_ID":63640,"ELEMENT_SET_NO":999,"REV_AT_EPOCH":5218,"BSTAR":0.0010658,"MEAN_MOTION_DOT":0.00029175,"MEAN_MOTION_DDOT":0},{"OBJECT_NAME":"STARLINK-33826","OBJECT_ID":"2025-083H","EPOCH":"2026-03-23T06:11:32.611776","MEAN_MOTION":15.27557525,"ECCENTRICITY":0.0001639,"INCLINATION":43.0001,"RA_OF_ASC_NODE":288.4412,"ARG_OF_PERICENTER":288.0327,"MEAN_ANOMALY":72.0346,"EPHEMERIS_TYPE":0,"CLASSIFICATION_TYPE":"U","NORAD_CAT_ID":63641,"ELEMENT_SET_NO":999,"REV_AT_EPOCH":5214,"BSTAR":0.00099471,"MEAN_MOTION_DOT":0.00027193,"MEAN_MOTION_DDOT":0},{"OBJECT_NAME":"STARLINK-33836","OBJECT_ID":"2025-083J","EPOCH":"2026-03-23T13:12:34.987680","MEAN_MOTION":15.27571878,"ECCENTRICITY":0.0001405,"INCLINATION":43.0032,"RA_OF_ASC_NODE":287.1965,"ARG_OF_PERICENTER":280.7765,"MEAN_ANOMALY":79.2928,"EPHEMERIS_TYPE":0,"CLASSIFICATION_TYPE":"U","NORAD_CAT_ID":63642,"ELEMENT_SET_NO":999,"REV_AT_EPOCH":5218,"BSTAR":0.00071595,"MEAN_MOTION_DOT":0.00019486,"MEAN_MOTION_DDOT":0},{"OBJECT_NAME":"STARLINK-33558","OBJECT_ID":"2025-083K","EPOCH":"2026-03-22T23:41:57.408000","MEAN_MOTION":15.27558382,"ECCENTRICITY":0.00019962,"INCLINATION":43.0013,"RA_OF_ASC_NODE":289.8499,"ARG_OF_PERICENTER":278.6252,"MEAN_ANOMALY":81.4373,"EPHEMERIS_TYPE":0,"CLASSIFICATION_TYPE":"U","NORAD_CAT_ID":63643,"ELEMENT_SET_NO":999,"REV_AT_EPOCH":5210,"BSTAR":0.0012638498,"MEAN_MOTION_DOT":0.00034658,"MEAN_MOTION_DDOT":0},{"OBJECT_NAME":"STARLINK-33852","OBJECT_ID":"2025-083L","EPOCH":"2026-03-23T13:10:43.827168","MEAN_MOTION":15.27567946,"ECCENTRICITY":0.0001508,"INCLINATION":43.0022,"RA_OF_ASC_NODE":287.1846,"ARG_OF_PERICENTER":280.248,"MEAN_ANOMALY":79.8202,"EPHEMERIS_TYPE":0,"CLASSIFICATION_TYPE":"U","NORAD_CAT_ID":63644,"ELEMENT_SET_NO":999,"REV_AT_EPOCH":5221,"BSTAR":0.0006537,"MEAN_MOTION_DOT":0.00017763,"MEAN_MOTION_DDOT":0},{"OBJECT_NAME":"STARLINK-33835","OBJECT_ID":"2025-083M","EPOCH":"2026-03-23T06:35:35.223072","MEAN_MOTION":15.2759675,"ECCENTRICITY":0.0001443,"INCLINATION":43.0012,"RA_OF_ASC_NODE":288.5558,"ARG_OF_PERICENTER":265.5052,"MEAN_ANOMALY":94.5635,"EPHEMERIS_TYPE":0,"CLASSIFICATION_TYPE":"U","NORAD_CAT_ID":63645,"ELEMENT_SET_NO":999,"REV_AT_EPOCH":5217,"BSTAR":0.001388,"MEAN_MOTION_DOT":0.0003815,"MEAN_MOTION_DDOT":0},{"OBJECT_NAME":"STARLINK-33661","OBJECT_ID":"2025-083N","EPOCH":"2026-03-23T06:15:14.323680","MEAN_MOTION":15.27559349,"ECCENTRICITY":0.0001656,"INCLINATION":42.9983,"RA_OF_ASC_NODE":288.4487,"ARG_OF_PERICENTER":256.6006,"MEAN_ANOMALY":103.4661,"EPHEMERIS_TYPE":0,"CLASSIFICATION_TYPE":"U","NORAD_CAT_ID":63646,"ELEMENT_SET_NO":999,"REV_AT_EPOCH":5217,"BSTAR":0.00090953,"MEAN_MOTION_DOT":0.00024835,"MEAN_MOTION_DDOT":0},{"OBJECT_NAME":"STARLINK-33729","OBJECT_ID":"2025-083P","EPOCH":"2026-03-23T07:03:19.611936","MEAN_MOTION":15.27592086,"ECCENTRICITY":0.0001726,"INCLINATION":43.0111,"RA_OF_ASC_NODE":288.7087,"ARG_OF_PERICENTER":256.9004,"MEAN_ANOMALY":103.1655,"EPHEMERIS_TYPE":0,"CLASSIFICATION_TYPE":"U","NORAD_CAT_ID":63647,"ELEMENT_SET_NO":999,"REV_AT_EPOCH":5214,"BSTAR":0.00086587,"MEAN_MOTION_DOT":0.0002365,"MEAN_MOTION_DDOT":0}]
