STARLINK-33791          
1 63594U 25076AB  26082.52250567  .00022227  00000+0  81464-3 0  9997
2 63594  43.0009 243.7689 0001837 258.9726 101.0919 15.27586251 53946
STARLINK-33831          
1 63595U 25076AC  26082.17243877  .00027527  00000+0  10063-2 0  9999
2 63595  43.0031 245.3815 0001763 283.3579  76.7076 15.27573202 53895
STARLINK-33879          
1 63634U 25083A   26082.29528254  .00029126  00000+0  10645-2 0  9992
2 63634  43.0025 288.7224 0001528 288.7089  71.3597 15.27557158 52149
STARLINK-33854          
1 63635U 25083B   26082.25287755  .00033861  00000+0  12350-2 0  9993
2 63635  43.0018 288.4071 0001737 287.7573  72.3089 15.27563997 52143
STARLINK-33864          
1 63636U 25083C   26082.29914118  .00025030  00000+0  91665-3 0  9994
2 63636  43.0035 288.7512 0000878 286.6891  73.3864 15.27557594 52173
STARLINK-33832          
1 63637U 25083D   26081.91822756  .00028994  00000+0  10604-2 0  9994
2 63637  43.0014 290.1933 0001613 284.2035  75.8638 15.27537160 52091
STARLINK-33856          
1 63638U 25083E   26082.25544574  .00026742  00000+0  97844-3 0  9993
2 63638  43.0014 288.4169 0001583 290.3174  69.7507 15.27557626 52143
STARLINK-33876          
1 63639U 25083F   26082.27085918  .00027759  00000+0  10150-2 0  9991
2 63639  42.9988 288.5273 0001850 258.5541 101.5102 15.27562938 52148
STARLINK-33859          
1 63640U 25083G   26082.55939824  .00029175  00000+0  10658-2 0  9995
2 63640  43.0004 287.2662 0001634 233.3932 126.6769 15.27571271 52185
STARLINK-33826          
1 63641U 25083H   26082.25801634  .00027193  00000+0  99471-3 0  9999
2 63641  43.0001 288.4412 0001639 288.0327  72.0346 15.27557525 52146
STARLINK-33836          
1 63642U 25083J   26082.55040495  .00019486  00000+0  71595-3 0  9996
2 63642  43.0032 287.1965 0001405 280.7765  79.2928 15.27571878 52182
STARLINK-33558          
1 63643U 25083K   26081.98747000  .00034658  00000+0  12638-2 0  9999
2 63643  43.0013 289.8499 0001996 278.6252  81.4373 15.27558382 52101
STARLINK-33852          
1 63644U 25083L   26082.54911837  .00017763  00000+0  65370-3 0  9994
2 63644  43.0022 287.1846 0001508 280.2480  79.8202 15.27567946 52210
STARLINK-33835          
1 63645U 25083M   26082.27471323  .00038150  00000+0  13880-2 0  9997
2 63645  43.0012 288.5558 0001443 265.5052  94.5635 15.27596750 52178
STARLINK-33661          
1 63646U 25083N   26082.26058245  .00024835  00000+0  90953-3 0  9993
2 63646  42.9983 288.4487 0001656 256.6006 103.4661 15.27559349 52172
STARLINK-33729          
1 63647U 25083P   26082.29397699  .00023650  00000+0  86587-3 0  9998
2 63647  43.0111 288.7087 0001726 256.9004 103.1655 15.27592086 52148
